SENTINEL-3A             
1 41335U 16011A   26202.22953099  .00000051  00000+0  39133-4 0  9994
2 41335  98.6232 269.1213 0001305  88.8236 271.3094 14.26740922542910
SENTINEL-3B             
1 43437U 18039A   26202.13255705  .00000055  00000+0  40728-4 0  9996
2 43437  98.6231 269.1747 0001276 118.4433 241.6877 14.26737513428961
